start=new Date('2022-05-02T00:00:00.000Z').valueOf();
sats=[{"EPOCH":"2022-05-01T19:55:53.995584","CLASSIFICATION_TYPE":"U","ELEMENT_SET_NO":"999","PERIOD":"95.592","NORAD_CAT_ID":"47724","MEAN_MOTION":"15.06400765","MEAN_ELEMENT_THEORY":"SGP4","SEMIMAJOR_AXIS":"6925.346","ARG_OF_PERICENTER":"81.9648","TIME_SYSTEM":"UTC","APOAPSIS":"548.210","RCS_SIZE":"LARGE","RA_OF_ASC_NODE":"331.7501","BSTAR":"0.00047668000000","PERIAPSIS":"546.213","TLE_LINE2":"2 47724  53.0538 331.7501 0001442  81.9648 278.1504 15.06400765 66639","SITE":"AFETR","EPHEMERIS_TYPE":"0","COUNTRY_CODE":"US","LAUNCH_DATE":"2021-03-04","DECAY_DATE":null,"TLE_LINE1":"1 47724U 21017C   22121.83048606  .00006826  00000-0  47668-3 0  9994","MEAN_MOTION_DOT":"0.00006826","FILE":"3424759","REF_FRAME":"TEME","REV_AT_EPOCH":"6663","ECCENTRICITY":"0.00014420","CENTER_NAME":"EARTH","OBJECT_TYPE":"PAYLOAD","MEAN_ANOMALY":"278.1504","GP_ID":"202472931","OBJECT_ID":"2021-017C","MEAN_MOTION_DDOT":"0.0000000000000","OBJECT_NAME":"STARLINK-2116","INCLINATION":"53.0538"},{"NORAD_CAT_ID":"47725","PERIOD":"95.593","ELEMENT_SET_NO":"999","CLASSIFICATION_TYPE":"U","EPOCH":"2022-05-01T04:49:36.094944","RCS_SIZE":"LARGE","APOAPSIS":"548.428","TIME_SYSTEM":"UTC","ARG_OF_PERICENTER":"58.3615","BSTAR":"-0.00004739400000","RA_OF_ASC_NODE":"44.5783","MEAN_ELEMENT_THEORY":"SGP4","MEAN_MOTION":"15.06387307","SEMIMAJOR_AXIS":"6925.387","DECAY_DATE":null,"TLE_LINE1":"1 47725U 21017D   22121.20111221 -.00000987  00000-0 -47394-4 0  9991","MEAN_MOTION_DOT":"-0.00000987","COUNTRY_CODE":"US","EPHEMERIS_TYPE":"0","SITE":"AFETR","TLE_LINE2":"2 47725  53.0556  44.5783 0001697  58.3615 301.7539 15.06387307 65574","PERIAPSIS":"546.077","LAUNCH_DATE":"2021-03-04","OBJECT_ID":"2021-017D","GP_ID":"202437630","INCLINATION":"53.0556","OBJECT_NAME":"STARLINK-2125","MEAN_MOTION_DDOT":"0.0000000000000","REF_FRAME":"TEME","FILE":"3424314","OBJECT_TYPE":"PAYLOAD","MEAN_ANOMALY":"301.7539","CENTER_NAME":"EARTH","ECCENTRICITY":"0.00016970","REV_AT_EPOCH":"6557"},{"PERIOD":"95.593","ELEMENT_SET_NO":"999","NORAD_CAT_ID":"47726","EPOCH":"2022-05-01T18:48:13.819392","CLASSIFICATION_TYPE":"U","BSTAR":"0.00032263000000","RA_OF_ASC_NODE":"41.9569","TIME_SYSTEM":"UTC","ARG_OF_PERICENTER":"56.7291","RCS_SIZE":"MEDIUM","APOAPSIS":"548.277","SEMIMAJOR_AXIS":"6925.379","MEAN_ELEMENT_THEORY":"SGP4","MEAN_MOTION":"15.06390133","MEAN_MOTION_DOT":"0.00004526","DECAY_DATE":null,"TLE_LINE1":"1 47726U 21017E   22121.78349328  .00004526  00000-0  32263-3 0  9995","LAUNCH_DATE":"2021-03-04","SITE":"AFETR","TLE_LINE2":"2 47726  53.0548  41.9569 0001492  56.7291 303.3841 15.06390133 65658","PERIAPSIS":"546.211","EPHEMERIS_TYPE":"0","COUNTRY_CODE":"US","OBJECT_NAME":"STARLINK-2126","MEAN_MOTION_DDOT":"0.0000000000000","INCLINATION":"53.0548","GP_ID":"202473431","OBJECT_ID":"2021-017E","ECCENTRICITY":"0.00014920","REV_AT_EPOCH":"6565","OBJECT_TYPE":"PAYLOAD","MEAN_ANOMALY":"303.3841","CENTER_NAME":"EARTH","FILE":"3424759","REF_FRAME":"TEME"},{"GP_ID":"202473674","OBJECT_ID":"2021-017F","MEAN_MOTION_DDOT":"0.0000000000000","OBJECT_NAME":"STARLINK-2129","INCLINATION":"53.0555","FILE":"3424759","REF_FRAME":"TEME","REV_AT_EPOCH":"6682","ECCENTRICITY":"0.00014540","CENTER_NAME":"EARTH","MEAN_ANOMALY":"298.0717","OBJECT_TYPE":"PAYLOAD","TLE_LINE1":"1 47727U 21017F   22121.86732364 -.00000172  00000-0  73535-5 0  9994","DECAY_DATE":null,"MEAN_MOTION_DOT":"-0.00000172","TLE_LINE2":"2 47727  53.0555 321.5886 0001454  62.0419 298.0717 15.06390697 66823","PERIAPSIS":"546.235","SITE":"AFETR","EPHEMERIS_TYPE":"0","COUNTRY_CODE":"US","LAUNCH_DATE":"2021-03-04","TIME_SYSTEM":"UTC","ARG_OF_PERICENTER":"62.0419","APOAPSIS":"548.249","RCS_SIZE":"LARGE","RA_OF_ASC_NODE":"321.5886","BSTAR":"0.00000735350000","MEAN_MOTION":"15.06390697","MEAN_ELEMENT_THEORY":"SGP4","SEMIMAJOR_AXIS":"6925.377","ELEMENT_SET_NO":"999","PERIOD":"95.593","NORAD_CAT_ID":"47727","EPOCH":"2022-05-01T20:48:56.762496","CLASSIFICATION_TYPE":"U"},{"MEAN_MOTION_DOT":"0.00001388","TLE_LINE1":"1 47728U 21017G   22121.49229115  .00001388  00000-0  11206-3 0  9993","DECAY_DATE":null,"LAUNCH_DATE":"2021-03-04","SITE":"AFETR","TLE_LINE2":"2 47728  53.0571  43.2770 0001541  66.6001 293.5150 15.06398149 65679","PERIAPSIS":"546.152","COUNTRY_CODE":"US","EPHEMERIS_TYPE":"0","OBJECT_NAME":"STARLINK-2131","MEAN_MOTION_DDOT":"0.0000000000000","INCLINATION":"53.0571","GP_ID":"202436881","OBJECT_ID":"2021-017G","ECCENTRICITY":"0.00015410","REV_AT_EPOCH":"6567","OBJECT_TYPE":"PAYLOAD","MEAN_ANOMALY":"293.5150","CENTER_NAME":"EARTH","FILE":"3424314","REF_FRAME":"TEME","PERIOD":"95.592","ELEMENT_SET_NO":"999","NORAD_CAT_ID":"47728","EPOCH":"2022-05-01T11:48:53.955360","CLASSIFICATION_TYPE":"U","BSTAR":"0.00011206000000","RA_OF_ASC_NODE":"43.2770","TIME_SYSTEM":"UTC","ARG_OF_PERICENTER":"66.6001","RCS_SIZE":"LARGE","APOAPSIS":"548.286","SEMIMAJOR_AXIS":"6925.354","MEAN_ELEMENT_THEORY":"SGP4","MEAN_MOTION":"15.06398149"},{"REF_FRAME":"TEME","FILE":"3424759","OBJECT_TYPE":"PAYLOAD","MEAN_ANOMALY":"286.0236","CENTER_NAME":"EARTH","ECCENTRICITY":"0.00013800","REV_AT_EPOCH":"6643","OBJECT_ID":"2021-017H","GP_ID":"202473182","INCLINATION":"53.0561","OBJECT_NAME":"STARLINK-2132","MEAN_MOTION_DDOT":"0.0000000000000","EPHEMERIS_TYPE":"0","COUNTRY_CODE":"US","SITE":"AFETR","TLE_LINE2":"2 47729  53.0561 346.7298 0001380  74.0905 286.0236 15.06390581 66431","PERIAPSIS":"546.287","LAUNCH_DATE":"2021-03-04","TLE_LINE1":"1 47729U 21017H   22121.83368960  .00003069  00000-0  22486-3 0  9994","DECAY_DATE":null,"MEAN_MOTION_DOT":"0.00003069","MEAN_ELEMENT_THEORY":"SGP4","MEAN_MOTION":"15.06390581","SEMIMAJOR_AXIS":"6925.377","RCS_SIZE":"LARGE","APOAPSIS":"548.198","ARG_OF_PERICENTER":"74.0905","TIME_SYSTEM":"UTC","BSTAR":"0.00022486000000","RA_OF_ASC_NODE":"346.7298","CLASSIFICATION_TYPE":"U","EPOCH":"2022-05-01T20:00:30.781440","NORAD_CAT_ID":"47729","PERIOD":"95.593","ELEMENT_SET_NO":"999"},{"TLE_LINE1":"1 47730U 21017J   22121.51393947  .00007082  00000-0  49388-3 0  9993","DECAY_DATE":null,"MEAN_MOTION_DOT":"0.00007082","PERIAPSIS":"545.781","TLE_LINE2":"2 47730  53.0553  58.1757 0002073  52.2052 307.9124 15.06399044 65418","SITE":"AFETR","COUNTRY_CODE":"US","EPHEMERIS_TYPE":"0","LAUNCH_DATE":"2021-03-04","GP_ID":"202438381","OBJECT_ID":"2021-017J","MEAN_MOTION_DDOT":"0.0000000000000","OBJECT_NAME":"STARLINK-2140","INCLINATION":"53.0553","FILE":"3424314","REF_FRAME":"TEME","REV_AT_EPOCH":"6541","ECCENTRICITY":"0.00020730","CENTER_NAME":"EARTH","OBJECT_TYPE":"PAYLOAD","MEAN_ANOMALY":"307.9124","ELEMENT_SET_NO":"999","PERIOD":"95.592","NORAD_CAT_ID":"47730","EPOCH":"2022-05-01T12:20:04.370208","CLASSIFICATION_TYPE":"U","ARG_OF_PERICENTER":"52.2052","TIME_SYSTEM":"UTC","APOAPSIS":"548.652","RCS_SIZE":"LARGE","RA_OF_ASC_NODE":"58.1757","BSTAR":"0.00049388000000","MEAN_MOTION":"15.06399044","MEAN_ELEMENT_THEORY":"SGP4","SEMIMAJOR_AXIS":"6925.351"},{"REF_FRAME":"TEME","FILE":"3424759","CENTER_NAME":"EARTH","MEAN_ANOMALY":"304.7683","OBJECT_TYPE":"PAYLOAD","REV_AT_EPOCH":"6553","ECCENTRICITY":"0.00018150","OBJECT_ID":"2021-017K","GP_ID":"202474174","INCLINATION":"53.0545","MEAN_MOTION_DDOT":"0.0000000000000","OBJECT_NAME":"STARLINK-2141","COUNTRY_CODE":"US","EPHEMERIS_TYPE":"0","PERIAPSIS":"545.978","TLE_LINE2":"2 47731  53.0545  51.9499 0001815  55.3477 304.7683 15.06393160 65533","SITE":"AFETR","LAUNCH_DATE":"2021-03-04","TLE_LINE1":"1 47731U 21017K   22121.78625737  .00007993  00000-0  55499-3 0  9999","DECAY_DATE":null,"MEAN_MOTION_DOT":"0.00007993","MEAN_MOTION":"15.06393160","MEAN_ELEMENT_THEORY":"SGP4","SEMIMAJOR_AXIS":"6925.370","APOAPSIS":"548.491","RCS_SIZE":"LARGE","TIME_SYSTEM":"UTC","ARG_OF_PERICENTER":"55.3477","RA_OF_ASC_NODE":"51.9499","BSTAR":"0.00055499000000","CLASSIFICATION_TYPE":"U","EPOCH":"2022-05-01T18:52:12.636768","NORAD_CAT_ID":"47731","ELEMENT_SET_NO":"999","PERIOD":"95.593"},{"NORAD_CAT_ID":"47732","PERIOD":"95.593","ELEMENT_SET_NO":"999","CLASSIFICATION_TYPE":"U","EPOCH":"2022-05-01T20:50:56.017824","RCS_SIZE":"LARGE","APOAPSIS":"548.106","TIME_SYSTEM":"UTC","ARG_OF_PERICENTER":"92.6373","BSTAR":"0.00016020000000","RA_OF_ASC_NODE":"326.5707","MEAN_ELEMENT_THEORY":"SGP4","MEAN_MOTION":"15.06389873","SEMIMAJOR_AXIS":"6925.380","DECAY_DATE":null,"TLE_LINE1":"1 47732U 21017L   22121.86870391  .00002105  00000-0  16020-3 0  9994","MEAN_MOTION_DOT":"0.00002105","EPHEMERIS_TYPE":"0","COUNTRY_CODE":"US","SITE":"AFETR","PERIAPSIS":"546.383","TLE_LINE2":"2 47732  53.0569 326.5707 0001244  92.6373 267.4758 15.06389873 66735","LAUNCH_DATE":"2021-03-04","OBJECT_ID":"2021-017L","GP_ID":"202472932","INCLINATION":"53.0569","OBJECT_NAME":"STARLINK-2142","MEAN_MOTION_DDOT":"0.0000000000000","REF_FRAME":"TEME","FILE":"3424759","MEAN_ANOMALY":"267.4758","OBJECT_TYPE":"PAYLOAD","CENTER_NAME":"EARTH","ECCENTRICITY":"0.00012440","REV_AT_EPOCH":"6673"},{"MEAN_ANOMALY":"316.7229","OBJECT_TYPE":"PAYLOAD","CENTER_NAME":"EARTH","ECCENTRICITY":"0.00018400","REV_AT_EPOCH":"6543","REF_FRAME":"TEME","FILE":"3424759","INCLINATION":"53.0556","OBJECT_NAME":"STARLINK-2143","MEAN_MOTION_DDOT":"0.0000000000000","OBJECT_ID":"2021-017M","GP_ID":"202472682","LAUNCH_DATE":"2021-03-04","EPHEMERIS_TYPE":"0","COUNTRY_CODE":"US","SITE":"AFETR","PERIAPSIS":"545.982","TLE_LINE2":"2 47733  53.0556  61.9896 0001840  43.3904 316.7229 15.06386074 65433","MEAN_MOTION_DOT":"0.00004537","DECAY_DATE":null,"TLE_LINE1":"1 47733U 21017M   22121.77427844  .00004537  00000-0  32340-3 0  9990","SEMIMAJOR_AXIS":"6925.391","MEAN_ELEMENT_THEORY":"SGP4","MEAN_MOTION":"15.06386074","BSTAR":"0.00032340000000","RA_OF_ASC_NODE":"61.9896","RCS_SIZE":"LARGE","APOAPSIS":"548.531","TIME_SYSTEM":"UTC","ARG_OF_PERICENTER":"43.3904","CLASSIFICATION_TYPE":"U","EPOCH":"2022-05-01T18:34:57.657216","NORAD_CAT_ID":"47733","PERIOD":"95.593","ELEMENT_SET_NO":"999"}];
